STARLINK-1817           
1 46715U 20073AX  26068.70308141  .00080320  00000+0  92097-3 0  9993
2 46715  53.0491 217.2383 0004331 243.1250 116.9321 15.61405760297478
PELICAN-1               
1 58296U 23174AS  26068.82902295  .00055098  00000+0  59605-3 0  9990
2 58296  97.3971 163.5879 0009543 253.2057 106.8154 15.63373922130585
