[{"OBJECT_NAME":"STARLINK-1817","OBJECT_ID":"2020-073AX","EPOCH":"2026-03-09T16:52:26.233824","MEAN_MOTION":15.6140576,"ECCENTRICITY":0.00043318,"INCLINATION":53.0491,"RA_OF_ASC_NODE":217.2383,"ARG_OF_PERICENTER":243.125,"MEAN_ANOMALY":116.9321,"EPHEMERIS_TYPE":0,"CLASSIFICATION_TYPE":"U","NORAD_CAT_ID":46715,"ELEMENT_SET_NO":999,"REV_AT_EPOCH":29747,"BSTAR":0.00092097073,"MEAN_MOTION_DOT":0.0008032,"MEAN_MOTION_DDOT":0},{"OBJECT_NAME":"PELICAN-1","OBJECT_ID":"2023-174AS","EPOCH":"2026-03-09T19:53:47.582880","MEAN_MOTION":15.63373922,"ECCENTRICITY":0.00095437,"INCLINATION":97.3971,"RA_OF_ASC_NODE":163.5879,"ARG_OF_PERICENTER":253.2057,"MEAN_ANOMALY":106.8154,"EPHEMERIS_TYPE":0,"CLASSIFICATION_TYPE":"U","NORAD_CAT_ID":58296,"ELEMENT_SET_NO":999,"REV_AT_EPOCH":13058,"BSTAR":0.0005960495,"MEAN_MOTION_DOT":0.00055098,"MEAN_MOTION_DDOT":0}]
